     2.10           N: GPS NAV DATA                         RINEX VERSION / TYPE
teqc  2009Mar23                         20130103 00:18:39UTCPGM / RUN BY / DATE
    16                                                      LEAP SECONDS
Linux 2.4.20-8|Pentium IV|gcc -static|Linux|486/DX+         COMMENT
teqc  2009Mar23                         20130102 01:05:16UTCCOMMENT
                                                            END OF HEADER
25 13  1  2 23 59 44.0 6.032781675458D-05 2.387423592154D-12 0.000000000000D+00
    5.000000000000D+00 9.593750000000D+00 4.547332271785D-09-8.203820615772D-02
    4.451721906662D-07 1.951150130481D-03 4.483386874199D-06 5.153607070923D+03
    3.455840000000D+05-3.166496753693D-08-9.358841252732D-01 1.117587089539D-08
    9.712144307508D-01 2.953437500000D+02 5.976936842725D-01-8.278559120931D-09
    1.021471119801D-10 1.000000000000D+00 1.721000000000D+03 0.000000000000D+00
    2.000000000000D+00 0.000000000000D+00 5.122274160385D-09 5.000000000000D+00
    3.410700000000D+05 4.000000000000D+00
21 13  1  3  0  0  0.0-2.722050994635D-04-2.273736754432D-12 0.000000000000D+00
    9.100000000000D+01 1.093750000000D+00 5.183430196388D-09 2.646220989612D-01
    2.644956111908D-07 1.960129861254D-02 1.027248799801D-05 5.153750173569D+03
    3.456000000000D+05-2.291053533554D-07 1.167864999179D+00 3.315508365631D-07
    9.312312031403D-01 1.705625000000D+02-2.191073182787D+00-8.540712897831D-09
    1.575065607805D-10 1.000000000000D+00 1.721000000000D+03 0.000000000000D+00
    2.000000000000D+00 0.000000000000D+00-1.117587089539D-08 9.100000000000D+01
    3.411300000000D+05 4.000000000000D+00
31 13  1  2 23 59 44.0 2.956176176667D-04 2.046363078989D-12 0.000000000000D+00
    1.000000000000D+00 3.306250000000D+01 3.952307486614D-09 1.115152903806D+00
    1.590698957443D-06 8.127521141432D-03 8.795410394669D-06 5.153803583145D+03
    3.455840000000D+05 1.471489667892D-07-1.953560867869D+00-1.117587089539D-07
    9.807283517067D-01 2.176562500000D+02-8.220012061411D-01-7.815682697413D-09
    1.071473202588D-12 1.000000000000D+00 1.721000000000D+03 0.000000000000D+00
    2.000000000000D+00 0.000000000000D+00-1.350417733192D-08 1.000000000000D+00
    3.428700000000D+05 4.000000000000D+00
 1 13  1  3  0  0  0.0 2.910713665187D-04 2.273736754432D-12 0.000000000000D+00
    7.100000000000D+01 1.225000000000D+01 4.407683597714D-09 1.570800133308D+00
    5.252659320831D-07 1.529752626084D-03 1.058913767338D-05 5.153711252213D+03
    3.456000000000D+05-3.725290298462D-09 1.165187777171D+00 0.000000000000D+00
    9.599145238129D-01 1.732812500000D+02 4.967875331491D-01-7.908543708304D-09
    2.089372745047D-10 1.000000000000D+00 1.721000000000D+03 0.000000000000D+00
    2.000000000000D+00 0.000000000000D+00 8.381903171539D-09 7.100000000000D+01
    3.435600000000D+05 4.000000000000D+00
32 13  1  3  0  0  0.0-5.226344801486D-04-3.524291969370D-12 0.000000000000D+00
    2.500000000000D+01 4.471875000000D+01 5.087354765889D-09 1.745170288227D+00
    2.222135663033D-06 1.168526720721D-02 5.194917321205D-06 5.153775955200D+03
    3.456000000000D+05 1.098960638046D-07 2.300385540611D+00 1.657754182816D-07
    9.498933769748D-01 2.735937500000D+02-4.212339527592D-01-8.315346367553D-09
   -4.321608583773D-11 1.000000000000D+00 1.721000000000D+03 0.000000000000D+00
    2.000000000000D+00 0.000000000000D+00-3.259629011154D-09 2.500000000000D+01
    3.444000000000D+05 4.000000000000D+00
